CCSDS_OMM_VERS = 2.0
CREATION_DATE  = 
ORIGINATOR     = 

OBJECT_NAME    = STARLINK-35930
OBJECT_ID      = 2025-270M
CENTER_NAME    = EARTH
REF_FRAME      = TEME
TIME_SYSTEM    = UTC
MEAN_ELEMENT_THEORY = SGP/SGP4

EPOCH          = 2025-12-03T18:40:26.436864
MEAN_MOTION    = 15.76217691
ECCENTRICITY   = .00028669
INCLINATION    = 42.9984
RA_OF_ASC_NODE = 245.9868
ARG_OF_PERICENTER = 319.5998
MEAN_ANOMALY   = 40.4658

EPHEMERIS_TYPE = 0
CLASSIFICATION_TYPE = U
NORAD_CAT_ID   = 66599
ELEMENT_SET_NO = 999
REV_AT_EPOCH   = 294
BSTAR          = -.51105059E-2
MEAN_MOTION_DOT = -.757535E-2
MEAN_MOTION_DDOT = 0

CCSDS_OMM_VERS = 2.0
CREATION_DATE  = 
ORIGINATOR     = 

OBJECT_NAME    = STARLINK-35980
OBJECT_ID      = 2025-270N
CENTER_NAME    = EARTH
REF_FRAME      = TEME
TIME_SYSTEM    = UTC
MEAN_ELEMENT_THEORY = SGP/SGP4

EPOCH          = 2025-12-03T11:03:46.188000
MEAN_MOTION    = 15.77552045
ECCENTRICITY   = .00027602
INCLINATION    = 42.9994
RA_OF_ASC_NODE = 247.9083
ARG_OF_PERICENTER = 345.9506
MEAN_ANOMALY   = 14.1287

EPHEMERIS_TYPE = 0
CLASSIFICATION_TYPE = U
NORAD_CAT_ID   = 66600
ELEMENT_SET_NO = 999
REV_AT_EPOCH   = 279
BSTAR          = -.50035388E-3
MEAN_MOTION_DOT = -.85551E-3
MEAN_MOTION_DDOT = 0

CCSDS_OMM_VERS = 2.0
CREATION_DATE  = 
ORIGINATOR     = 

OBJECT_NAME    = STARLINK-35978
OBJECT_ID      = 2025-270P
CENTER_NAME    = EARTH
REF_FRAME      = TEME
TIME_SYSTEM    = UTC
MEAN_ELEMENT_THEORY = SGP/SGP4

EPOCH          = 2025-12-03T18:39:27.405792
MEAN_MOTION    = 15.76369941
ECCENTRICITY   = .00054388
INCLINATION    = 42.9974
RA_OF_ASC_NODE = 245.9815
ARG_OF_PERICENTER = 235.9116
MEAN_ANOMALY   = 124.1238

EPHEMERIS_TYPE = 0
CLASSIFICATION_TYPE = U
NORAD_CAT_ID   = 66601
ELEMENT_SET_NO = 999
REV_AT_EPOCH   = 278
BSTAR          = .17194643E-2
MEAN_MOTION_DOT = .289478E-2
MEAN_MOTION_DDOT = 0

CCSDS_OMM_VERS = 2.0
CREATION_DATE  = 
ORIGINATOR     = 

OBJECT_NAME    = STARLINK-36050
OBJECT_ID      = 2025-270Q
CENTER_NAME    = EARTH
REF_FRAME      = TEME
TIME_SYSTEM    = UTC
MEAN_ELEMENT_THEORY = SGP/SGP4

EPOCH          = 2025-12-03T11:02:45.965472
MEAN_MOTION    = 15.77499641
ECCENTRICITY   = .00028515
INCLINATION    = 42.9978
RA_OF_ASC_NODE = 247.9037
ARG_OF_PERICENTER = 352.3597
MEAN_ANOMALY   = 7.7229

EPHEMERIS_TYPE = 0
CLASSIFICATION_TYPE = U
NORAD_CAT_ID   = 66602
ELEMENT_SET_NO = 999
REV_AT_EPOCH   = 279
BSTAR          = -.57894064E-3
MEAN_MOTION_DOT = -.98533E-3
MEAN_MOTION_DDOT = 0

CCSDS_OMM_VERS = 2.0
CREATION_DATE  = 
ORIGINATOR     = 

OBJECT_NAME    = STARLINK-36048
OBJECT_ID      = 2025-270R
CENTER_NAME    = EARTH
REF_FRAME      = TEME
TIME_SYSTEM    = UTC
MEAN_ELEMENT_THEORY = SGP/SGP4

EPOCH          = 2025-12-03T11:02:14.987616
MEAN_MOTION    = 15.77427555
ECCENTRICITY   = .00029761
INCLINATION    = 42.9997
RA_OF_ASC_NODE = 247.8997
ARG_OF_PERICENTER = 348.8676
MEAN_ANOMALY   = 11.2128

EPHEMERIS_TYPE = 0
CLASSIFICATION_TYPE = U
NORAD_CAT_ID   = 66603
ELEMENT_SET_NO = 999
REV_AT_EPOCH   = 279
BSTAR          = -.72866525E-3
MEAN_MOTION_DOT = -.123141E-2
MEAN_MOTION_DDOT = 0

CCSDS_OMM_VERS = 2.0
CREATION_DATE  = 
ORIGINATOR     = 

OBJECT_NAME    = STARLINK-35977
OBJECT_ID      = 2025-270S
CENTER_NAME    = EARTH
REF_FRAME      = TEME
TIME_SYSTEM    = UTC
MEAN_ELEMENT_THEORY = SGP/SGP4

EPOCH          = 2025-12-03T11:01:46.597440
MEAN_MOTION    = 15.77554299
ECCENTRICITY   = .00039426
INCLINATION    = 42.9996
RA_OF_ASC_NODE = 247.8966
ARG_OF_PERICENTER = 347.7852
MEAN_ANOMALY   = 12.2922

EPHEMERIS_TYPE = 0
CLASSIFICATION_TYPE = U
NORAD_CAT_ID   = 66604
ELEMENT_SET_NO = 999
REV_AT_EPOCH   = 289
BSTAR          = .71417663E-3
MEAN_MOTION_DOT = .123952E-2
MEAN_MOTION_DDOT = 0

CCSDS_OMM_VERS = 2.0
CREATION_DATE  = 
ORIGINATOR     = 

OBJECT_NAME    = STARLINK-36052
OBJECT_ID      = 2025-270T
CENTER_NAME    = EARTH
REF_FRAME      = TEME
TIME_SYSTEM    = UTC
MEAN_ELEMENT_THEORY = SGP/SGP4

EPOCH          = 2025-12-03T08:00:01.999872
MEAN_MOTION    = 15.77202712
ECCENTRICITY   = .0001872
INCLINATION    = 42.9988
RA_OF_ASC_NODE = 248.6618
ARG_OF_PERICENTER = 272.0176
MEAN_ANOMALY   = 92.6481

EPHEMERIS_TYPE = 0
CLASSIFICATION_TYPE = U
NORAD_CAT_ID   = 66605
ELEMENT_SET_NO = 999
REV_AT_EPOCH   = 289
BSTAR          = -.10227645E-1
MEAN_MOTION_DOT = -.1519094E-1
MEAN_MOTION_DDOT = 0

CCSDS_OMM_VERS = 2.0
CREATION_DATE  = 
ORIGINATOR     = 

OBJECT_NAME    = STARLINK-36063
OBJECT_ID      = 2025-270U
CENTER_NAME    = EARTH
REF_FRAME      = TEME
TIME_SYSTEM    = UTC
MEAN_ELEMENT_THEORY = SGP/SGP4

EPOCH          = 2025-12-03T18:37:00.979392
MEAN_MOTION    = 15.75605933
ECCENTRICITY   = .00021358
INCLINATION    = 42.9981
RA_OF_ASC_NODE = 245.9669
ARG_OF_PERICENTER = 314.2101
MEAN_ANOMALY   = 45.8592

EPHEMERIS_TYPE = 0
CLASSIFICATION_TYPE = U
NORAD_CAT_ID   = 66606
ELEMENT_SET_NO = 999
REV_AT_EPOCH   = 294
BSTAR          = .18492967E-2
MEAN_MOTION_DOT = .301357E-2
MEAN_MOTION_DDOT = 0

CCSDS_OMM_VERS = 2.0
CREATION_DATE  = 
ORIGINATOR     = 

OBJECT_NAME    = STARLINK-35993
OBJECT_ID      = 2025-270V
CENTER_NAME    = EARTH
REF_FRAME      = TEME
TIME_SYSTEM    = UTC
MEAN_ELEMENT_THEORY = SGP/SGP4

EPOCH          = 2025-12-03T18:36:59.788800
MEAN_MOTION    = 15.75973552
ECCENTRICITY   = .000278
INCLINATION    = 42.9983
RA_OF_ASC_NODE = 245.9674
ARG_OF_PERICENTER = 316.6181
MEAN_ANOMALY   = 43.4470

EPHEMERIS_TYPE = 0
CLASSIFICATION_TYPE = U
NORAD_CAT_ID   = 66607
ELEMENT_SET_NO = 999
REV_AT_EPOCH   = 284
BSTAR          = -.5504525E-2
MEAN_MOTION_DOT = -.802756E-2
MEAN_MOTION_DDOT = 0

CCSDS_OMM_VERS = 2.0
CREATION_DATE  = 
ORIGINATOR     = 

OBJECT_NAME    = STARLINK-36036
OBJECT_ID      = 2025-270W
CENTER_NAME    = EARTH
REF_FRAME      = TEME
TIME_SYSTEM    = UTC
MEAN_ELEMENT_THEORY = SGP/SGP4

EPOCH          = 2025-12-03T08:00:01.999872
MEAN_MOTION    = 15.77197162
ECCENTRICITY   = .00017052
INCLINATION    = 42.9989
RA_OF_ASC_NODE = 248.6471
ARG_OF_PERICENTER = 268.7164
MEAN_ANOMALY   = 101.8576

EPHEMERIS_TYPE = 0
CLASSIFICATION_TYPE = U
NORAD_CAT_ID   = 66608
ELEMENT_SET_NO = 999
REV_AT_EPOCH   = 273
BSTAR          = -.11405663E-1
MEAN_MOTION_DOT = -.1704448E-1
MEAN_MOTION_DDOT = 0

CCSDS_OMM_VERS = 2.0
CREATION_DATE  = 
ORIGINATOR     = 

OBJECT_NAME    = STARLINK-36034
OBJECT_ID      = 2025-270X
CENTER_NAME    = EARTH
REF_FRAME      = TEME
TIME_SYSTEM    = UTC
MEAN_ELEMENT_THEORY = SGP/SGP4

EPOCH          = 2025-12-03T08:00:01.999872
MEAN_MOTION    = 15.77204613
ECCENTRICITY   = .00018712
INCLINATION    = 42.9989
RA_OF_ASC_NODE = 248.6425
ARG_OF_PERICENTER = 269.7510
MEAN_ANOMALY   = 102.7448

EPHEMERIS_TYPE = 0
CLASSIFICATION_TYPE = U
NORAD_CAT_ID   = 66609
ELEMENT_SET_NO = 999
REV_AT_EPOCH   = 273
BSTAR          = -.11581071E-1
MEAN_MOTION_DOT = -.1728208E-1
MEAN_MOTION_DDOT = 0

CCSDS_OMM_VERS = 2.0
CREATION_DATE  = 
ORIGINATOR     = 

OBJECT_NAME    = STARLINK-35680
OBJECT_ID      = 2025-270Y
CENTER_NAME    = EARTH
REF_FRAME      = TEME
TIME_SYSTEM    = UTC
MEAN_ELEMENT_THEORY = SGP/SGP4

EPOCH          = 2025-12-03T18:34:33.430656
MEAN_MOTION    = 15.75731525
ECCENTRICITY   = .0004622
INCLINATION    = 42.9987
RA_OF_ASC_NODE = 245.9546
ARG_OF_PERICENTER = 334.0832
MEAN_ANOMALY   = 25.9805

EPHEMERIS_TYPE = 0
CLASSIFICATION_TYPE = U
NORAD_CAT_ID   = 66610
ELEMENT_SET_NO = 999
REV_AT_EPOCH   = 305
BSTAR          = -.30550834E-2
MEAN_MOTION_DOT = -.459412E-2
MEAN_MOTION_DDOT = 0

