STARLINK-35930          
1 66599U 25270M   25337.77808376 -.00757535  00000+0 -51105-2 0  9994
2 66599  42.9984 245.9868 0002866 319.5998  40.4658 15.76217691  2948
STARLINK-35980          
1 66600U 25270N   25337.46095125 -.00085551  00000+0 -50035-3 0  9997
2 66600  42.9994 247.9083 0002760 345.9506  14.1287 15.77552045  2799
STARLINK-35978          
1 66601U 25270P   25337.77740053  .00289478  00000+0  17195-2 0  9990
2 66601  42.9974 245.9815 0005438 235.9116 124.1238 15.76369941  2786
STARLINK-36050          
1 66602U 25270Q   25337.46025423 -.00098533  00000+0 -57894-3 0  9997
2 66602  42.9978 247.9037 0002851 352.3597   7.7229 15.77499641  2791
STARLINK-36048          
1 66603U 25270R   25337.45989569 -.00123141  00000+0 -72867-3 0  9998
2 66603  42.9997 247.8997 0002976 348.8676  11.2128 15.77427555  2796
STARLINK-35977          
1 66604U 25270S   25337.45956710  .00123952  00000+0  71418-3 0  9990
2 66604  42.9996 247.8966 0003942 347.7852  12.2922 15.77554299  2890
STARLINK-36052          
1 66605U 25270T   25337.33335648 -.01519094  00000+0 -10228-1 0  9998
2 66605  42.9988 248.6618 0001872 272.0176  92.6481 15.77202712  2896
STARLINK-36063          
1 66606U 25270U   25337.77570578  .00301357  00000+0  18493-2 0  9991
2 66606  42.9981 245.9669 0002135 314.2101  45.8592 15.75605933  2945
STARLINK-35993          
1 66607U 25270V   25337.77569200 -.00802756  00000+0 -55045-2 0  9997
2 66607  42.9983 245.9674 0002780 316.6181  43.4470 15.75973552  2847
STARLINK-36036          
1 66608U 25270W   25337.33335648 -.01704448  00000+0 -11406-1 0  9999
2 66608  42.9989 248.6471 0001705 268.7164 101.8576 15.77197162  2734
STARLINK-36034          
1 66609U 25270X   25337.33335648 -.01728208  00000+0 -11581-1 0  9994
2 66609  42.9989 248.6425 0001871 269.7510 102.7448 15.77204613  2732
STARLINK-35680          
1 66610U 25270Y   25337.77399804 -.00459412  00000+0 -30551-2 0  9994
2 66610  42.9987 245.9546 0004622 334.0832  25.9805 15.75731525  3050
